[{"OBJECT_NAME":"STARLINK-34440","OBJECT_ID":"2025-137W","EPOCH":"2026-03-09T22:48:13.852512","MEAN_MOTION":15.30201069,"ECCENTRICITY":0.00010555,"INCLINATION":53.1582,"RA_OF_ASC_NODE":334.1038,"ARG_OF_PERICENTER":105.8215,"MEAN_ANOMALY":254.2902,"EPHEMERIS_TYPE":0,"CLASSIFICATION_TYPE":"U","NORAD_CAT_ID":64614,"ELEMENT_SET_NO":999,"REV_AT_EPOCH":4077,"BSTAR":0.00064388487,"MEAN_MOTION_DOT":0.0001876,"MEAN_MOTION_DDOT":0},{"OBJECT_NAME":"ARC-1","OBJECT_ID":"2015-058F","EPOCH":"2026-03-09T11:16:24.767040","MEAN_MOTION":15.39473048,"ECCENTRICITY":0.00404032,"INCLINATION":64.7636,"RA_OF_ASC_NODE":93.5186,"ARG_OF_PERICENTER":65.9865,"MEAN_ANOMALY":294.5492,"EPHEMERIS_TYPE":0,"CLASSIFICATION_TYPE":"U","NORAD_CAT_ID":40969,"ELEMENT_SET_NO":999,"REV_AT_EPOCH":10163,"BSTAR":0.0010773685,"MEAN_MOTION_DOT":0.00043725,"MEAN_MOTION_DDOT":0}]
